18357,COSMOS 1885 [GLONASS],1987,675.73,-1.0,-,65.85,Inactive,0,MEO,Kazakhstan,Russia/USSR,Unknown,Unknown,Unknown,1 18357U 87079C   25059.38637618 -.00000047  00000+0  00000+0 0  9998,2 18357  65.8510 334.9048 0022226 212.9519 247.1088  2.13102041275047,2.13102041,0.0022226,MEO
19163,COSMOS 1946 [GLONASS],1988,675.73,-1.0,-,64.71,Inactive,0,MEO,Kazakhstan,Russia/USSR,Unknown,Unknown,Unknown,1 19163U 88043A   25060.34778814  .00000047  00000+0  00000+0 0  9997,2 19163  64.7055  89.7814 0003629  92.8379 335.5198  2.13103069285525,2.13103069,0.0003629,MEO
19164,COSMOS 1947 [GLONASS],1988,675.73,-1.0,-,64.7,Inactive,0,MEO,Kazakhstan,Russia/USSR,Unknown,Unknown,Unknown,1 19164U 88043B   25060.26832109  .00000048  00000+0  00000+0 0  9998,2 19164  64.7018  89.7048 0024298 223.7533 209.6406  2.13103968281220,2.13103968,0.0024298,MEO
19165,COSMOS 1948 [GLONASS],1988,675.73,-1.0,-,64.69,Inactive,0,MEO,Kazakhstan,Russia/USSR,Unknown,Unknown,Unknown,1 19165U 88043C   25061.34579778  .00000037  00000+0  00000+0 0  9997,2 19165  64.6934  89.4709 0004431 298.1726 143.7758  2.13102935285950,2.13102935,0.0004431,MEO
19502,COSMOS 1971 [GLONASS],1988,675.73,-1.0,-,65.49,Inactive,0,MEO,Kazakhstan,Russia/USSR,Unknown,Unknown,Unknown,1 19502U 88085B   25059.33630904 -.00000042  00000+0  00000+0 0  9990,2 19502  65.4941 330.4943 0023102  13.9559 186.3251  2.13101469269251,2.13101469,0.0023102,MEO
19503,COSMOS 1972 [GLONASS],1988,675.73,-1.0,-,65.53,Inactive,0,MEO,Kazakhstan,Russia/USSR,Unknown,Unknown,Unknown,1 19503U 88085C   25061.50061921 -.00000051  00000+0  00000+0 0  9990,2 19503  65.5290 330.8643 0003981 227.6102 287.7940  2.13102011283589,2.13102011,0.0003981,MEO
19750,COSMOS 1988 [GLONASS],1989,675.73,-1.0,-,64.68,Inactive,0,MEO,Kazakhstan,Russia/USSR,Unknown,Unknown,Unknown,1 19750U 89001B   25059.29697609  .00000055  00000+0  00000+0 0  9997,2 19750  64.6799  88.8584 0015814 222.4402 320.2897  2.13101769281182,2.13101769,0.0015814,MEO
20024,COSMOS 2022 [GLONASS],1989,675.73,-1.0,-,65.21,Inactive,0,MEO,Kazakhstan,Russia/USSR,Unknown,Unknown,Unknown,1 20024U 89039A   25061.57162350 -.00000048  00000+0  00000+0 0  9991,2 20024  65.2084 327.0692 0007973 214.8328 323.5086  2.13101955278289,2.13101955,0.0007973,MEO
20025,COSMOS 2023 [GLONASS],1989,675.73,-1.0,-,65.23,Inactive,0,MEO,Kazakhstan,Russia/USSR,Unknown,Unknown,Unknown,1 20025U 89039B   25059.35133494 -.00000038  00000+0  00000+0 0  9991,2 20025  65.2347 327.4312 0019213 200.4062 262.3181  2.13103687278168,2.13103687,0.0019213,MEO
